{
    "links": {
        "self": "http://www.neowsapp.com/rest/v1/neo/3838076?api_key=iIulBulltgU6a56xZRHN4H3l9WmuAYTsLGpBGhQ2"
    },
    "id": "3838076",
    "neo_reference_id": "3838076",
    "name": "(2019 BD5)",
    "designation": "2019 BD5",
    "nasa_jpl_url": "http://ssd.jpl.nasa.gov/sbdb.cgi?sstr=3838076",
    "absolute_magnitude_h": 26.7,
    "estimated_diameter": {
        "kilometers": {
            "estimated_diameter_min": 0.0121494041,
            "estimated_diameter_max": 0.0271668934
        },
        "meters": {
            "estimated_diameter_min": 12.14940408,
            "estimated_diameter_max": 27.1668934089
        },
        "miles": {
            "estimated_diameter_min": 0.0075492874,
            "estimated_diameter_max": 0.0168807197
        },
        "feet": {
            "estimated_diameter_min": 39.8602508817,
            "estimated_diameter_max": 89.1302305717
        }
    },
    "is_potentially_hazardous_asteroid": false,
    "close_approach_data": [
        {
            "close_approach_date": "2019-01-30",
            "close_approach_date_full": "2019-Jan-30 01:17",
            "epoch_date_close_approach": 1548811020000,
            "relative_velocity": {
                "kilometers_per_second": "12.0528327205",
                "kilometers_per_hour": "43390.1977936214",
                "miles_per_hour": "26960.9815123755"
            },
            "miss_distance": {
                "astronomical": "0.0095853671",
                "lunar": "3.7287078019",
                "kilometers": "1433950.501328077",
                "miles": "891015.5245863826"
            },
            "orbiting_body": "Moon"
        },
        {
            "close_approach_date": "2019-01-30",
            "close_approach_date_full": "2019-Jan-30 02:34",
            "epoch_date_close_approach": 1548815640000,
            "relative_velocity": {
                "kilometers_per_second": "11.1150539669",
                "kilometers_per_hour": "40014.1942808152",
                "miles_per_hour": "24863.2642185432"
            },
            "miss_distance": {
                "astronomical": "0.0072907727",
                "lunar": "2.8361105803",
                "kilometers": "1090684.066574149",
                "miles": "677719.6526912962"
            },
            "orbiting_body": "Earth"
        },
        {
            "close_approach_date": "2096-09-28",
            "close_approach_date_full": "2096-Sep-28 04:41",
            "epoch_date_close_approach": 3999645660000,
            "relative_velocity": {
                "kilometers_per_second": "19.2190215597",
                "kilometers_per_hour": "69188.477615033",
                "miles_per_hour": "42991.0293269632"
            },
            "miss_distance": {
                "astronomical": "0.3042154726",
                "lunar": "118.3398188414",
                "kilometers": "45509986.722003362",
                "miles": "28278594.4532039156"
            },
            "orbiting_body": "Earth"
        }
    ],
    "orbital_data": {
        "orbit_id": "2",
        "orbit_determination_date": "2019-02-08 07:11:13",
        "first_observation_date": "2019-01-31",
        "last_observation_date": "2019-02-08",
        "data_arc_in_days": 8,
        "observations_used": 59,
        "orbit_uncertainty": "7",
        "minimum_orbit_intersection": ".00481482",
        "jupiter_tisserand_invariant": "4.045",
        "epoch_osculation": "2459000.5",
        "eccentricity": ".4887817999984909",
        "semi_major_axis": "1.705277673212785",
        "inclination": "5.661829928623944",
        "ascending_node_longitude": "311.3324300898839",
        "orbital_period": "813.3754983735118",
        "perihelion_distance": ".8717689826026014",
        "perihelion_argument": "127.5622579581949",
        "aphelion_distance": "2.538786363822968",
        "perihelion_time": "2459289.766942024622",
        "mean_anomaly": "231.9704498880255",
        "mean_motion": ".4426000054340015",
        "equinox": "J2000",
        "orbit_class": {
            "orbit_class_type": "APO",
            "orbit_class_description": "Near-Earth asteroid orbits which cross the Earth’s orbit similar to that of 1862 Apollo",
            "orbit_class_range": "a (semi-major axis) > 1.0 AU; q (perihelion) < 1.017 AU"
        }
    },
    "is_sentry_object": false
}